NORAD_CAT_ID,OBJECT_NAME,OBJECT_TYPE,EPOCH,MEAN_MOTION,ECCENTRICITY,INCLINATION,RA_OF_ASC_NODE,ARG_OF_PERICENTER,MEAN_ANOMALY,BSTAR,MEAN_MOTION_DOT,MEAN_MOTION_DDOT,TLE_LINE0,TLE_LINE1,TLE_LINE2,SEMIMAJOR_AXIS,PERIOD,APOGEE,PERIGEE,DECAYED
55951.0,STARLINK-5908,PAYLOAD,2024-06-13 04:41:55,14.98329006,0.0002886,69.9997,84.058,269.4187,90.6641,8.0881e-06,4e-08,0.0,0 STARLINK-5908,1 55951U 23037AP  24165.19578548  .00000004  00000-0  80881-5 0  9999,2 55951  69.9997  84.0580 0002886 269.4187  90.6641 14.98329006 69285,6950.196,96.107,574.067,570.055,0.0
55951.0,STARLINK-5908,PAYLOAD,2024-06-13 22:19:24,14.98334198,0.0002823,70.0,82.2063,269.779,90.3045,2.7602e-05,2.36e-06,0.0,0 STARLINK-5908,1 55951U 23037AP  24165.93014076  .00000236  00000-0  27602-4 0  9990,2 55951  70.0000  82.2063 0002823 269.7790  90.3045 14.98334198 69051,6950.18,96.107,574.007,570.083,0.0
55951.0,STARLINK-5908,PAYLOAD,2024-06-14 11:08:28,14.98336177,0.000295,69.9999,80.8607,271.8084,88.2737,3.3872e-06,-5.3e-07,0.0,0 STARLINK-5908,1 55951U 23037AP  24166.46421853 -.00000053  00000-0  33872-5 0  9999,2 55951  69.9999  80.8607 0002950 271.8084  88.2737 14.98336177 69136,6950.174,96.107,574.089,569.988,0.0
55951.0,STARLINK-5908,PAYLOAD,2024-06-14 20:45:17,14.98325429,0.000285,70.0003,79.8521,271.3704,88.7128,0.00012591,1.409e-05,0.0,0 STARLINK-5908,1 55951U 23037AP  24166.86478318  .00001409  00000-0  12591-3 0  9999,2 55951  70.0003  79.8521 0002850 271.3704  88.7128 14.98325429 69194,6950.207,96.107,574.053,570.091,0.0
55951.0,STARLINK-5908,PAYLOAD,2024-06-15 11:10:29,14.98326987,0.0002609,70.0008,78.3367,275.9843,84.1019,9.9839e-05,1.098e-05,0.0,0 STARLINK-5908,1 55951U 23037AP  24167.46562465  .00001098  00000-0  99839-4 0  9998,2 55951  70.0008  78.3367 0002609 275.9843  84.1019 14.98326987 69286,6950.202,96.107,573.881,570.254,0.0
55951.0,STARLINK-5908,PAYLOAD,2024-06-15 22:23:26,14.98317777,0.0002844,70.0003,77.1582,268.3271,91.7562,0.00029092,3.379e-05,0.0,0 STARLINK-5908,1 55951U 23037AP  24167.93294416  .00003379  00000-0  29092-3 0  9995,2 55951  70.0003  77.1582 0002844 268.3271  91.7562 14.98317777 69351,6950.231,96.108,574.072,570.119,0.0
55951.0,STARLINK-5908,PAYLOAD,2024-06-16 11:12:30,14.98340774,0.0002754,70.0005,75.8116,270.0252,90.0592,-9.5674e-05,-1.235e-05,0.0,0 STARLINK-5908,1 55951U 23037AP  24168.46701726 -.00001235  00000-0 -95674-4 0  9992,2 55951  70.0005  75.8116 0002754 270.0252  90.0592 14.98340774 69437,6950.16,96.106,573.939,570.11,0.0
55951.0,STARLINK-5908,PAYLOAD,2024-06-16 22:25:27,14.98327356,0.0002556,70.0006,74.6333,270.036,90.0506,9.2624e-06,1.8e-07,0.0,0 STARLINK-5908,1 55951U 23037AP  24168.93434461  .00000018  00000-0  92624-5 0  9992,2 55951  70.0006  74.6333 0002556 270.0360  90.0506 14.98327356 69500,6950.201,96.107,573.843,570.29,0.0
55951.0,STARLINK-5908,PAYLOAD,2024-06-17 20:51:19,14.98330417,0.0002867,69.9997,72.2752,269.5793,90.5037,9.5028e-05,1.041e-05,0.0,0 STARLINK-5908,1 55951U 23037AP  24169.86897990  .00001041  00000-0  95028-4 0  9992,2 55951  69.9997  72.2752 0002867 269.5793  90.5037 14.98330417 69981,6950.192,96.107,574.049,570.064,0.0
55951.0,STARLINK-5908,PAYLOAD,2024-06-17 22:27:27,14.98331665,0.0002879,70.0,72.1068,269.4596,90.6233,0.0001175,1.309e-05,0.0,0 STARLINK-5908,1 55951U 23037AP  24169.93573861  .00001309  00000-0  11750-3 0  9994,2 55951  70.0000  72.1068 0002879 269.4596  90.6233 14.98331665 69650,6950.188,96.107,574.054,570.052,0.0
55951.0,STARLINK-5908,PAYLOAD,2024-06-18 03:15:51,14.98341895,0.0002657,69.9998,71.6018,265.4927,94.5928,0.00016873,1.921e-05,0.0,0 STARLINK-5908,1 55951U 23037AP  24170.13601010  .00001921  00000-0  16873-3 0  9997,2 55951  69.9998  71.6018 0002657 265.4927  94.5928 14.98341895 70023,6950.156,96.106,573.868,570.174,0.0
55951.0,STARLINK-5908,PAYLOAD,2024-06-18 11:16:31,14.98337287,0.0002683,69.9999,70.7595,268.3465,91.7387,8.2706e-05,8.94e-06,0.0,0 STARLINK-5908,1 55951U 23037AP  24170.46981303  .00000894  00000-0  82706-4 0  9996,2 55951  69.9999  70.7595 0002683 268.3465  91.7387 14.98337287 70075,6950.17,96.107,573.9,570.171,0.0
55951.0,STARLINK-5908,PAYLOAD,2024-06-18 19:17:12,14.98328008,0.0002763,69.9997,69.9187,266.2178,93.8666,8.8359e-05,9.61e-06,0.0,0 STARLINK-5908,1 55951U 23037AP  24170.80361800  .00000961  00000-0  88359-4 0  9993,2 55951  69.9997  69.9187 0002763 266.2178  93.8666 14.98328008 70127,6950.199,96.107,573.984,570.144,0.0
55951.0,STARLINK-5908,PAYLOAD,2024-06-18 20:53:20,14.98328155,0.0002746,69.9997,69.7503,265.9829,94.1016,8.5334e-05,9.25e-06,0.0,0 STARLINK-5908,1 55951U 23037AP  24170.87037797  .00000925  00000-0  85334-4 0  9995,2 55951  69.9997  69.7503 0002746 265.9829  94.1016 14.98328155 69794,6950.199,96.107,573.972,570.155,0.0
55951.0,STARLINK-5908,PAYLOAD,2024-06-19 03:17:52,14.98330488,0.0002759,69.9998,69.0769,266.1207,93.9636,5.3157e-05,5.41e-06,0.0,0 STARLINK-5908,1 55951U 23037AP  24171.13741694  .00000541  00000-0  53157-4 0  9995,2 55951  69.9998  69.0769 0002759 266.1207  93.9636 14.98330488 69831,6950.191,96.107,573.974,570.139,0.0
55951.0,STARLINK-5908,PAYLOAD,2024-06-19 20:55:22,14.98327321,0.0002533,69.9998,67.2253,267.4906,92.5963,-5.2568e-05,-7.2e-06,0.0,0 STARLINK-5908,1 55951U 23037AP  24171.87178241 -.00000720  00000-0 -52568-4 0  9994,2 55951  69.9998  67.2253 0002533 267.4906  92.5963 14.98327321 70280,6950.201,96.107,573.827,570.306,0.0
55951.0,STARLINK-5908,PAYLOAD,2024-06-19 22:31:30,14.98323602,0.000278,70.0002,67.0578,269.1771,90.907,9.4239e-06,1.9e-07,0.0,0 STARLINK-5908,1 55951U 23037AP  24171.93854287  .00000019  00000-0  94239-5 0  9993,2 55951  70.0002  67.0578 0002780 269.1771  90.9070 14.98323602 69951,6950.213,96.107,574.01,570.146,0.0
55951.0,STARLINK-5908,PAYLOAD,2024-06-20 09:44:26,14.98335903,0.0002723,70.0002,65.8796,269.1228,90.9619,-0.00016358,-2.044e-05,0.0,0 STARLINK-5908,1 55951U 23037AP  24172.40585899 -.00002044  00000-0 -16358-3 0  9992,2 55951  70.0002  65.8796 0002723 269.1228  90.9619 14.98335903 70029,6950.175,96.107,573.932,570.147,0.0
55951.0,STARLINK-5908,PAYLOAD,2024-06-20 22:33:30,14.98327646,0.0002789,69.9998,64.5328,270.429,89.6549,2.9133e-05,2.55e-06,0.0,0 STARLINK-5908,1 55951U 23037AP  24172.93993981  .00000255  00000-0  29133-4 0  9991,2 55951  69.9998  64.5328 0002789 270.4290  89.6549 14.98327646 70441,6950.2,96.107,574.004,570.127,0.0
55951.0,STARLINK-5908,PAYLOAD,2024-06-21 03:21:54,14.98330355,0.0002763,69.9998,64.028,268.0036,92.0806,5.4242e-05,5.54e-06,0.0,0 STARLINK-5908,1 55951U 23037AP  24173.14021753  .00000554  00000-0  54242-4 0  9995,2 55951  69.9998  64.0280 0002763 268.0036  92.0806 14.98330355 70137,6950.192,96.107,573.977,570.136,0.0
55951.0,STARLINK-5908,PAYLOAD,2024-06-21 22:35:31,14.98329832,0.0002842,69.9997,62.0083,266.3047,93.7787,8.5168e-05,9.23e-06,0.0,0 STARLINK-5908,1 55951U 23037AP  24173.94133714  .00000923  00000-0  85168-4 0  9995,2 55951  69.9997  62.0083 0002842 266.3047  93.7787 14.98329832 70253,6950.193,96.107,574.034,570.083,0.0
55951.0,STARLINK-5908,PAYLOAD,2024-06-22 01:47:47,14.98331278,0.0002826,69.9998,61.6716,266.0796,94.004,9.9016e-05,1.089e-05,0.0,0 STARLINK-5908,1 55951U 23037AP  24174.07485585  .00001089  00000-0  99016-4 0  9997,2 55951  69.9998  61.6716 0002826 266.0796  94.0040 14.98331278 70615,6950.189,96.107,574.018,570.09,0.0
55951.0,STARLINK-5908,PAYLOAD,2024-06-22 22:37:32,14.98329955,0.0002719,70.0001,59.4836,260.1352,99.95,2.9059e-05,2.54e-06,0.0,0 STARLINK-5908,1 55951U 23037AP  24174.94273816  .00000254  00000-0  29059-4 0  9998,2 55951  70.0001  59.4836 0002719 260.1352  99.9500 14.98329955 70406,6950.193,96.107,573.948,570.168,0.0
55951.0,STARLINK-5908,PAYLOAD,2024-06-23 01:49:48,14.98329625,0.0002828,69.9998,59.1467,266.9628,93.1208,1.4747e-05,8.3e-07,0.0,0 STARLINK-5908,1 55951U 23037AP  24175.07625908  .00000083  00000-0  14747-4 0  9994,2 55951  69.9998  59.1467 0002828 266.9628  93.1208 14.98329625 70760,6950.194,96.107,574.025,570.094,0.0
55951.0,STARLINK-5908,PAYLOAD,2024-06-23 22:39:33,14.98330586,0.0002901,69.9997,56.9583,267.4175,92.6652,-1.5797e-05,-2.81e-06,0.0,0 STARLINK-5908,1 55951U 23037AP  24175.94413866 -.00000281  00000-0 -15797-4 0  9996,2 55951  69.9997  56.9583 0002901 267.4175  92.6652 14.98330586 70550,6950.191,96.107,574.072,570.04,0.0
55951.0,STARLINK-5908,PAYLOAD,2024-06-24 01:51:49,14.98331498,0.0002911,69.9998,56.6218,268.2351,91.8475,-5.5077e-06,-1.59e-06,0.0,0 STARLINK-5908,1 55951U 23037AP  24176.07765775 -.00000159  00000-0 -55077-5 0  9990,2 55951  69.9998  56.6218 0002911 268.2351  91.8475 14.98331498 70916,6950.188,96.107,574.076,570.03,0.0
55951.0,STARLINK-5908,PAYLOAD,2024-06-24 21:05:26,14.98330309,0.0002981,69.9997,54.6019,268.4741,91.6076,2.9219e-05,2.56e-06,0.0,0 STARLINK-5908,1 55951U 23037AP  24176.87877713  .00000256  00000-0  29219-4 0  9998,2 55951  69.9997  54.6019 0002981 268.4741  91.6076 14.98330309 70694,6950.192,96.107,574.129,569.985,0.0
55951.0,STARLINK-5908,PAYLOAD,2024-06-25 01:53:50,14.98332063,0.0002971,69.9998,54.0973,268.5322,91.5496,4.7761e-05,4.77e-06,0.0,0 STARLINK-5908,1 55951U 23037AP  24177.07905545  .00000477  00000-0  47761-4 0  9993,2 55951  69.9998  54.0973 0002971 268.5322  91.5496 14.98332063 71069,6950.187,96.107,574.116,569.987,0.0
55951.0,STARLINK-5908,PAYLOAD,2024-06-25 22:43:34,14.98333847,0.0002973,70.0,51.9091,267.4379,92.6439,6.0412e-05,6.28e-06,0.0,0 STARLINK-5908,1 55951U 23037AP  24177.94693280  .00000628  00000-0  60412-4 0  9995,2 55951  70.0000  51.9091 0002973 267.4379  92.6439 14.98333847 70851,6950.181,96.107,574.112,569.98,0.0
55951.0,STARLINK-5908,PAYLOAD,2024-06-26 01:55:50,14.98335413,0.0002964,70.0001,51.5727,267.2342,92.8478,7.5634e-05,8.1e-06,0.0,0 STARLINK-5908,1 55951U 23037AP  24178.08045101  .00000810  00000-0  75634-4 0  9999,2 55951  70.0001  51.5727 0002964 267.2342  92.8478 14.98335413 71219,6950.176,96.107,574.101,569.981,0.0
